{
  "type": "FeatureCollection",
  "features": [
    {
      "type": "Feature",
      "properties": {
        "norad_id": 31424,
        "name": "FENGYUN 1C DEB",
        "group": "fengyun-1c-debris",
        "lat": 28.30149726134025,
        "lon": -150.33749530335575,
        "alt_km": 803.8165914424089,
        "timestamp": "2025-12-06T16:45:43.004353+00:00",
        "meta_object_name": "FENGYUN 1C DEB",
        "meta_object_id": "1999-025BTL",
        "meta_epoch": "2025-11-30T08:17:58.541280",
        "meta_mean_motion": 14.08343651,
        "meta_eccentricity": 0.00943116,
        "meta_inclination": 98.4831,
        "meta_ra_of_asc_node": 19.0781,
        "meta_arg_of_pericenter": 140.2741,
        "meta_mean_anomaly": 220.5387,
        "meta_ephemeris_type": 0,
        "meta_classification_type": "U",
        "meta_norad_cat_id": 31424,
        "meta_element_set_no": 999,
        "meta_rev_at_epoch": 62996,
        "meta_bstar": 0.00033750257,
        "meta_mean_motion_dot": 5.62e-06,
        "meta_mean_motion_ddot": 0,
        "tle_line1": "1 31424U 99025BTL 25334.34581645  .00000562  00000+0  33750-3 0  9995",
        "tle_line2": "2 31424  98.4831  19.0781 0094311 140.2741 220.5387 14.08343651629966"
      },
      "geometry": {
        "type": "Point",
        "coordinates": [
          -150.33749530335575,
          28.30149726134025
        ]
      }
    },
    {
      "type": "Feature",
      "properties": {
        "norad_id": 31426,
        "name": "FENGYUN 1C DEB",
        "group": "fengyun-1c-debris",
        "lat": 14.74573387696823,
        "lon": 136.48975549754277,
        "alt_km": 1164.8777691085288,
        "timestamp": "2025-12-06T16:45:43.004363+00:00",
        "meta_object_name": "FENGYUN 1C DEB",
        "meta_object_id": "1999-025BTN",
        "meta_epoch": "2025-12-05T22:26:14.174592",
        "meta_mean_motion": 13.89952053,
        "meta_eccentricity": 0.0325112,
        "meta_inclination": 98.5783,
        "meta_ra_of_asc_node": 138.061,
        "meta_arg_of_pericenter": 204.7387,
        "meta_mean_anomaly": 311.3036,
        "meta_ephemeris_type": 0,
        "meta_classification_type": "U",
        "meta_norad_cat_id": 31426,
        "meta_element_set_no": 999,
        "meta_rev_at_epoch": 93478,
        "meta_bstar": 0.0044880069,
        "meta_mean_motion_dot": 8.436e-05,
        "meta_mean_motion_ddot": 0,
        "tle_line1": "1 31426U 99025BTN 25339.93488628  .00008436  00000+0  44880-2 0  9997",
        "tle_line2": "2 31426  98.5783 138.0610 0325112 204.7387 311.3036 13.89952053934785"
      },
      "geometry": {
        "type": "Point",
        "coordinates": [
          136.48975549754277,
          14.74573387696823
        ]
      }
    },
    {
      "type": "Feature",
      "properties": {
        "norad_id": 31427,
        "name": "FENGYUN 1C DEB",
        "group": "fengyun-1c-debris",
        "lat": -77.16976778903502,
        "lon": -132.57077497745948,
        "alt_km": 722.1564972096112,
        "timestamp": "2025-12-06T16:45:43.004376+00:00",
        "meta_object_name": "FENGYUN 1C DEB",
        "meta_object_id": "1999-025BTP",
        "meta_epoch": "2025-12-05T06:38:24.478944",
        "meta_mean_motion": 14.58416313,
        "meta_eccentricity": 0.00318184,
        "meta_inclination": 98.6701,
        "meta_ra_of_asc_node": 88.0127,
        "meta_arg_of_pericenter": 43.0691,
        "meta_mean_anomaly": 317.2988,
        "meta_ephemeris_type": 0,
        "meta_classification_type": "U",
        "meta_norad_cat_id": 31427,
        "meta_element_set_no": 999,
        "meta_rev_at_epoch": 96772,
        "meta_bstar": 0.0046305931,
        "meta_mean_motion_dot": 0.00021631,
        "meta_mean_motion_ddot": 0,
        "tle_line1": "1 31427U 99025BTP 25339.27667221  .00021631  00000+0  46306-2 0  9990",
        "tle_line2": "2 31427  98.6701  88.0127 0031818  43.0691 317.2988 14.58416313967725"
      },
      "geometry": {
        "type": "Point",
        "coordinates": [
          -132.57077497745948,
          -77.16976778903502
        ]
      }
    },
    {
      "type": "Feature",
      "properties": {
        "norad_id": 31428,
        "name": "FENGYUN 1C DEB",
        "group": "fengyun-1c-debris",
        "lat": -2.230701440126255,
        "lon": -47.84931696612607,
        "alt_km": 800.1991940323906,
        "timestamp": "2025-12-06T16:45:43.004386+00:00",
        "meta_object_name": "FENGYUN 1C DEB",
        "meta_object_id": "1999-025BTQ",
        "meta_epoch": "2025-12-05T16:37:31.736352",
        "meta_mean_motion": 14.41959696,
        "meta_eccentricity": 0.00634533,
        "meta_inclination": 99.0375,
        "meta_ra_of_asc_node": 310.7314,
        "meta_arg_of_pericenter": 174.6333,
        "meta_mean_anomaly": 5.6896,
        "meta_ephemeris_type": 0,
        "meta_classification_type": "U",
        "meta_norad_cat_id": 31428,
        "meta_element_set_no": 999,
        "meta_rev_at_epoch": 97408,
        "meta_bstar": 0.0014692419,
        "meta_mean_motion_dot": 4.886e-05,
        "meta_mean_motion_ddot": 0,
        "tle_line1": "1 31428U 99025BTQ 25339.69272843  .00004886  00000+0  14692-2 0  9995",
        "tle_line2": "2 31428  99.0375 310.7314 0063453 174.6333   5.6896 14.41959696974086"
      },
      "geometry": {
        "type": "Point",
        "coordinates": [
          -47.84931696612607,
          -2.230701440126255
        ]
      }
    },
    {
      "type": "Feature",
      "properties": {
        "norad_id": 31429,
        "name": "FENGYUN 1C DEB",
        "group": "fengyun-1c-debris",
        "lat": 67.94886863267402,
        "lon": -128.09339858122283,
        "alt_km": 800.8349789820395,
        "timestamp": "2025-12-06T16:45:43.004396+00:00",
        "meta_object_name": "FENGYUN 1C DEB",
        "meta_object_id": "1999-025BTR",
        "meta_epoch": "2025-12-03T02:17:33.244224",
        "meta_mean_motion": 14.22501224,
        "meta_eccentricity": 0.0015036,
        "meta_inclination": 98.6915,
        "meta_ra_of_asc_node": 26.1666,
        "meta_arg_of_pericenter": 90.6109,
        "meta_mean_anomaly": 299.4857,
        "meta_ephemeris_type": 0,
        "meta_classification_type": "U",
        "meta_norad_cat_id": 31429,
        "meta_element_set_no": 999,
        "meta_rev_at_epoch": 95816,
        "meta_bstar": 0.0012419305,
        "meta_mean_motion_dot": 2.731e-05,
        "meta_mean_motion_ddot": 0,
        "tle_line1": "1 31429U 99025BTR 25337.09552366  .00002731  00000+0  12419-2 0  9991",
        "tle_line2": "2 31429  98.6915  26.1666 0015036  90.6109 299.4857 14.22501224958162"
      },
      "geometry": {
        "type": "Point",
        "coordinates": [
          -128.09339858122283,
          67.94886863267402
        ]
      }
    },
    {
      "type": "Feature",
      "properties": {
        "norad_id": 31430,
        "name": "FENGYUN 1C DEB",
        "group": "fengyun-1c-debris",
        "lat": -52.749794847390646,
        "lon": 55.419550007744625,
        "alt_km": 821.3772463810656,
        "timestamp": "2025-12-06T16:45:43.004406+00:00",
        "meta_object_name": "FENGYUN 1C DEB",
        "meta_object_id": "1999-025BTS",
        "meta_epoch": "2025-12-06T03:40:04.223424",
        "meta_mean_motion": 14.25560495,
        "meta_eccentricity": 0.00272474,
        "meta_inclination": 98.7444,
        "meta_ra_of_asc_node": 43.198,
        "meta_arg_of_pericenter": 61.7735,
        "meta_mean_anomaly": 326.5558,
        "meta_ephemeris_type": 0,
        "meta_classification_type": "U",
        "meta_norad_cat_id": 31430,
        "meta_element_set_no": 999,
        "meta_rev_at_epoch": 96024,
        "meta_bstar": 0.0017229678,
        "meta_mean_motion_dot": 4.05e-05,
        "meta_mean_motion_ddot": 0,
        "tle_line1": "1 31430U 99025BTS 25340.15282666  .00004050  00000+0  17230-2 0  9999",
        "tle_line2": "2 31430  98.7444  43.1980 0027247  61.7735 326.5558 14.25560495960241"
      },
      "geometry": {
        "type": "Point",
        "coordinates": [
          55.419550007744625,
          -52.749794847390646
        ]
      }
    },
    {
      "type": "Feature",
      "properties": {
        "norad_id": 31431,
        "name": "FENGYUN 1C DEB",
        "group": "fengyun-1c-debris",
        "lat": -33.01354387865125,
        "lon": -125.15415409634886,
        "alt_km": 968.7108979602453,
        "timestamp": "2025-12-06T16:45:43.004418+00:00",
        "meta_object_name": "FENGYUN 1C DEB",
        "meta_object_id": "1999-025BTT",
        "meta_epoch": "2025-12-06T03:13:52.445856",
        "meta_mean_motion": 14.03032638,
        "meta_eccentricity": 0.01332701,
        "meta_inclination": 98.5391,
        "meta_ra_of_asc_node": 228.7146,
        "meta_arg_of_pericenter": 113.7451,
        "meta_mean_anomaly": 247.776,
        "meta_ephemeris_type": 0,
        "meta_classification_type": "U",
        "meta_norad_cat_id": 31431,
        "meta_element_set_no": 999,
        "meta_rev_at_epoch": 94439,
        "meta_bstar": 0.0022675906,
        "meta_mean_motion_dot": 3.772e-05,
        "meta_mean_motion_ddot": 0,
        "tle_line1": "1 31431U 99025BTT 25340.13463479  .00003772  00000+0  22676-2 0  9991",
        "tle_line2": "2 31431  98.5391 228.7146 0133270 113.7451 247.7760 14.03032638944399"
      },
      "geometry": {
        "type": "Point",
        "coordinates": [
          -125.15415409634886,
          -33.01354387865125
        ]
      }
    }
  ]
}